NOAA 18
1 28654U 05018A   19141.86715314 +.00000060 +00000-0 +57656-4 0  9999
2 28654 099.0983 188.4159 0013259 254.3290 105.6418 14.12424959721495
NOAA 19
1 33591U 09005A   19141.91882525 +.00000059 +00000-0 +57341-4 0  9999
2 33591 099.1790 132.3721 0015038 095.9926 264.2959 14.12352559529723
